[{"OBJECT_NAME":"FLOCK 4G-20","OBJECT_ID":"2025-009AD","EPOCH":"2026-03-09T17:18:25.581888","MEAN_MOTION":15.3710341,"ECCENTRICITY":0.0001677,"INCLINATION":97.3941,"RA_OF_ASC_NODE":151.4523,"ARG_OF_PERICENTER":285.4351,"MEAN_ANOMALY":74.6708,"EPHEMERIS_TYPE":0,"CLASSIFICATION_TYPE":"U","NORAD_CAT_ID":62636,"ELEMENT_SET_NO":999,"REV_AT_EPOCH":6376,"BSTAR":0.0017944712,"MEAN_MOTION_DOT":0.00065564,"MEAN_MOTION_DDOT":0},{"OBJECT_NAME":"INNOSAT 3 (RS92S0)","OBJECT_ID":"2025-155U","EPOCH":"2026-03-09T22:04:35.098752","MEAN_MOTION":15.36713341,"ECCENTRICITY":0.00065738,"INCLINATION":97.4426,"RA_OF_ASC_NODE":38.6151,"ARG_OF_PERICENTER":146.647,"MEAN_ANOMALY":213.5189,"EPHEMERIS_TYPE":0,"CLASSIFICATION_TYPE":"U","NORAD_CAT_ID":64894,"ELEMENT_SET_NO":999,"REV_AT_EPOCH":6568,"BSTAR":0.0011717269,"MEAN_MOTION_DOT":0.00042146,"MEAN_MOTION_DDOT":0}]
